{
  "type": "FeatureCollection",
  "name": "Laurel Rentals",
  "properties": {
    "workspaceId": "laurel-rentals",
    "label": "Laurel Rentals",
    "listingType": "rent",
    "location": "Fort Collins, CO",
    "radiusMiles": 15,
    "propertyTypes": [
      "apartment",
      "townhome",
      "house"
    ],
    "boundarySource": "https://resources.finalsite.net/images/v1784560656/psdschoolsorg9/tuspewekuelw8xukqxyv/ES_Boundaries.pdf",
    "addressLocator": "https://schoolbus.psdschools.org/Eligibility",
    "boundaryNote": "Attendance area extracted from the georeferenced map currently published by PSD for 2026\u201327. Raster-derived boundary: verify edge addresses and bus eligibility with PSD\u2019s locator; attendance alone does not guarantee busing.",
    "boundaryMethod": "Laurel fill contour extracted from the official PDF, transformed using its GEO viewport control points and NAD83 Colorado North StatePlane projection; conservative interior outline, approximately 10\u201330 m edge uncertainty."
  },
  "features": [
    {
      "type": "Feature",
      "properties": {
        "school": "Laurel Elementary",
        "basis": "georeferenced-PSD-current-map"
      },
      "geometry": {
        "type": "Polygon",
        "coordinates": [
          [
            [
              -105.0016952,
              40.6098225
            ],
            [
              -105.0291496,
              40.6099372
            ],
            [
              -105.0292465,
              40.596044
            ],
            [
              -105.041324,
              40.5960924
            ],
            [
              -105.0527444,
              40.5958859
            ],
            [
              -105.0528609,
              40.594882
            ],
            [
              -105.0505647,
              40.5934503
            ],
            [
              -105.0505697,
              40.592697
            ],
            [
              -105.0517846,
              40.5916137
            ],
            [
              -105.0523335,
              40.5916158
            ],
            [
              -105.0528869,
              40.5909484
            ],
            [
              -105.052669,
              40.5906965
            ],
            [
              -105.0527854,
              40.5896926
            ],
            [
              -105.052567,
              40.5895243
            ],
            [
              -105.0525714,
              40.5888548
            ],
            [
              -105.0532356,
              40.5880204
            ],
            [
              -105.0541139,
              40.5880237
            ],
            [
              -105.0557573,
              40.5885322
            ],
            [
              -105.0575139,
              40.5885389
            ],
            [
              -105.0578416,
              40.5887913
            ],
            [
              -105.0580573,
              40.589378
            ],
            [
              -105.0579054,
              40.595822
            ],
            [
              -105.0709721,
              40.5957037
            ],
            [
              -105.0718488,
              40.595958
            ],
            [
              -105.0763504,
              40.5959746
            ],
            [
              -105.0763709,
              40.5927105
            ],
            [
              -105.0767097,
              40.5912052
            ],
            [
              -105.0767079,
              40.5739638
            ],
            [
              -105.0770398,
              40.5735465
            ],
            [
              -105.0786862,
              40.5735525
            ],
            [
              -105.0787243,
              40.5674428
            ],
            [
              -105.0582012,
              40.5673664
            ],
            [
              -105.0580203,
              40.5782462
            ],
            [
              -105.0571422,
              40.5782429
            ],
            [
              -105.0551736,
              40.5771473
            ],
            [
              -105.0517803,
              40.5757114
            ],
            [
              -105.0458638,
              40.5740981
            ],
            [
              -105.0444409,
              40.5735066
            ],
            [
              -105.0438949,
              40.573086
            ],
            [
              -105.0428081,
              40.5714915
            ],
            [
              -105.0416195,
              40.5687248
            ],
            [
              -105.0418475,
              40.5674703
            ],
            [
              -105.0395428,
              40.5674611
            ],
            [
              -105.0397116,
              40.5749108
            ],
            [
              -105.0393749,
              40.5759975
            ],
            [
              -105.0388209,
              40.5767486
            ],
            [
              -105.0380486,
              40.5773314
            ],
            [
              -105.0343073,
              40.5786556
            ],
            [
              -105.033424,
              40.5794053
            ],
            [
              -105.0330889,
              40.5802409
            ],
            [
              -105.0330617,
              40.5841745
            ],
            [
              -105.0323955,
              40.5852599
            ],
            [
              -105.0306292,
              40.5866756
            ],
            [
              -105.0300751,
              40.5874266
            ],
            [
              -105.0297329,
              40.5892666
            ],
            [
              -105.0267687,
              40.5892545
            ],
            [
              -105.0256732,
              40.5889152
            ],
            [
              -105.024795,
              40.5889117
            ],
            [
              -105.0241345,
              40.58916
            ],
            [
              -105.0200725,
              40.5891433
            ],
            [
              -105.0198541,
              40.588975
            ],
            [
              -105.0016312,
              40.5887307
            ],
            [
              -105.0016952,
              40.6098225
            ]
          ]
        ]
      }
    }
  ]
}
